{"type": "FeatureCollection", "features": [ {"type": "Feature", "properties": {"norad_id": 42741, "name": "EUTELSAT 172B", "group": "eutelsat", "lat": 0.007245102869701157, "lon": 78.49708091161354, "alt_km": 35786.014336438835, "timestamp": "2025-12-24T11:32:59.675581+00:00", "meta": {"OBJECT_NAME": "EUTELSAT 172B", "OBJECT_ID": "2017-029B", "EPOCH": "2025-12-23T20:47:52.887840", "MEAN_MOTION": 1.00269764, "ECCENTRICITY": 2.51e-05, "INCLINATION": 0.0215, "RA_OF_ASC_NODE": 113.3929, "ARG_OF_PERICENTER": 20.3426, "MEAN_ANOMALY": 82.8905, "EPHEMERIS_TYPE": 0, "CLASSIFICATION_TYPE": "U", "NORAD_CAT_ID": 42741, "ELEMENT_SET_NO": 999, "REV_AT_EPOCH": 3197, "BSTAR": 0, "MEAN_MOTION_DOT": 1.5e-07, "MEAN_MOTION_DDOT": 0}, "tle": {"line1": "1 42741U 17029B   25357.86658435  .00000015  00000+0  00000+0 0  9998", "line2": "2 42741   0.0215 113.3929 0000251  20.3426  82.8905  1.00269764 31978"}}, "geometry": {"type": "Point", "coordinates": [78.49708091161354, 0.007245102869701157]}}, {"type": "Feature", "properties": {"norad_id": 44334, "name": "EUTELSAT 7C", "group": "eutelsat", "lat": 0.04912824798910136, "lon": -86.51768819737926, "alt_km": 35773.57265957361, "timestamp": "2025-12-24T11:32:59.675594+00:00", "meta": {"OBJECT_NAME": "EUTELSAT 7C", "OBJECT_ID": "2019-034B", "EPOCH": "2025-12-24T00:36:26.599104", "MEAN_MOTION": 1.00270695, "ECCENTRICITY": 0.0003149, "INCLINATION": 0.0727, "RA_OF_ASC_NODE": 178.4457, "ARG_OF_PERICENTER": 78.347, "MEAN_ANOMALY": 212.1001, "EPHEMERIS_TYPE": 0, "CLASSIFICATION_TYPE": "U", "NORAD_CAT_ID": 44334, "ELEMENT_SET_NO": 999, "REV_AT_EPOCH": 508, "BSTAR": 0, "MEAN_MOTION_DOT": 6.9e-07, "MEAN_MOTION_DDOT": 0}, "tle": {"line1": "1 44334U 19034B   25358.02530786  .00000069  00000+0  00000+0 0  9992", "line2": "2 44334   0.0727 178.4457 0003149  78.3470 212.1001  1.00270695  5088"}}, "geometry": {"type": "Point", "coordinates": [-86.51768819737926, 0.04912824798910136]}}, {"type": "Feature", "properties": {"norad_id": 44624, "name": "EUTELSAT 5 WEST B", "group": "eutelsat", "lat": -0.08266187367893746, "lon": -98.50668695894804, "alt_km": 35773.306023871235, "timestamp": "2025-12-24T11:32:59.675610+00:00", "meta": {"OBJECT_NAME": "EUTELSAT 5 WEST B", "OBJECT_ID": "2019-067A", "EPOCH": "2025-12-24T00:44:38.545152", "MEAN_MOTION": 1.00271344, "ECCENTRICITY": 0.0003098, "INCLINATION": 0.0637, "RA_OF_ASC_NODE": 341.7669, "ARG_OF_PERICENTER": 290.2039, "MEAN_ANOMALY": 187.0045, "EPHEMERIS_TYPE": 0, "CLASSIFICATION_TYPE": "U", "NORAD_CAT_ID": 44624, "ELEMENT_SET_NO": 999, "REV_AT_EPOCH": 2268, "BSTAR": 0, "MEAN_MOTION_DOT": -2.1e-07, "MEAN_MOTION_DDOT": 0}, "tle": {"line1": "1 44624U 19067A   25358.03100168 -.00000021  00000+0  00000+0 0  9997", "line2": "2 44624   0.0637 341.7669 0003098 290.2039 187.0045  1.00271344 22684"}}, "geometry": {"type": "Point", "coordinates": [-98.50668695894804, -0.08266187367893746]}}, {"type": "Feature", "properties": {"norad_id": 45027, "name": "EUTELSAT KONNECT", "group": "eutelsat", "lat": -0.019879324468912284, "lon": -86.31563758159166, "alt_km": 35782.89948127693, "timestamp": "2025-12-24T11:32:59.675622+00:00", "meta": {"OBJECT_NAME": "EUTELSAT KONNECT", "OBJECT_ID": "2020-005B", "EPOCH": "2025-12-24T00:28:38.654112", "MEAN_MOTION": 1.00264652, "ECCENTRICITY": 0.0001271, "INCLINATION": 0.0693, "RA_OF_ASC_NODE": 94.2188, "ARG_OF_PERICENTER": 196.3336, "MEAN_ANOMALY": 176.6119, "EPHEMERIS_TYPE": 0, "CLASSIFICATION_TYPE": "U", "NORAD_CAT_ID": 45027, "ELEMENT_SET_NO": 999, "REV_AT_EPOCH": 2258, "BSTAR": 0, "MEAN_MOTION_DOT": 6.9e-07, "MEAN_MOTION_DDOT": 0}, "tle": {"line1": "1 45027U 20005B   25358.01989183  .00000069  00000+0  00000+0 0  9990", "line2": "2 45027   0.0693  94.2188 0001271 196.3336 176.6119  1.00264652 22586"}}, "geometry": {"type": "Point", "coordinates": [-86.31563758159166, -0.019879324468912284]}}, {"type": "Feature", "properties": {"norad_id": 49056, "name": "EUTELSAT QUANTUM", "group": "eutelsat", "lat": -0.027499829489745803, "lon": -45.77840049937468, "alt_km": 35774.13013759555, "timestamp": "2025-12-24T11:32:59.675634+00:00", "meta": {"OBJECT_NAME": "EUTELSAT QUANTUM", "OBJECT_ID": "2021-069B", "EPOCH": "2025-12-24T00:05:38.704416", "MEAN_MOTION": 1.00270684, "ECCENTRICITY": 0.0003424, "INCLINATION": 0.0105, "RA_OF_ASC_NODE": 9.8472, "ARG_OF_PERICENTER": 271.7568, "MEAN_ANOMALY": 220.2966, "EPHEMERIS_TYPE": 0, "CLASSIFICATION_TYPE": "U", "NORAD_CAT_ID": 49056, "ELEMENT_SET_NO": 999, "REV_AT_EPOCH": 1617, "BSTAR": 0, "MEAN_MOTION_DOT": 1.47e-06, "MEAN_MOTION_DDOT": 0}, "tle": {"line1": "1 49056U 21069B   25358.00392019  .00000147  00000+0  00000+0 0  9999", "line2": "2 49056   0.0105   9.8472 0003424 271.7568 220.2966  1.00270684 16171"}}, "geometry": {"type": "Point", "coordinates": [-45.77840049937468, -0.027499829489745803]}}, {"type": "Feature", "properties": {"norad_id": 53765, "name": "EUTELSAT KONNECT VHTS", "group": "eutelsat", "lat": -0.011140684508771183, "lon": -90.77349733263017, "alt_km": 35778.236733029524, "timestamp": "2025-12-24T11:32:59.675646+00:00", "meta": {"OBJECT_NAME": "EUTELSAT KONNECT VHTS", "OBJECT_ID": "2022-110A", "EPOCH": "2025-12-24T00:36:38.599200", "MEAN_MOTION": 1.00265361, "ECCENTRICITY": 0.0002401, "INCLINATION": 0.0585, "RA_OF_ASC_NODE": 98.5376, "ARG_OF_PERICENTER": 151.8694, "MEAN_ANOMALY": 214.2904, "EPHEMERIS_TYPE": 0, "CLASSIFICATION_TYPE": "U", "NORAD_CAT_ID": 53765, "ELEMENT_SET_NO": 999, "REV_AT_EPOCH": 507, "BSTAR": 0, "MEAN_MOTION_DOT": 3.7e-07, "MEAN_MOTION_DDOT": 0}, "tle": {"line1": "1 53765U 22110A   25358.02544675  .00000037  00000+0  00000+0 0  9996", "line2": "2 53765   0.0585  98.5376 0002401 151.8694 214.2904  1.00265361  5073"}}, "geometry": {"type": "Point", "coordinates": [-90.77349733263017, -0.011140684508771183]}}, {"type": "Feature", "properties": {"norad_id": 54048, "name": "EUTELSAT HOTBIRD 13F", "group": "eutelsat", "lat": -0.028681745618481025, "lon": -80.54628638556633, "alt_km": 35786.85306681974, "timestamp": "2025-12-24T11:32:59.675659+00:00", "meta": {"OBJECT_NAME": "EUTELSAT HOTBIRD 13F", "OBJECT_ID": "2022-134A", "EPOCH": "2025-12-24T00:28:38.654112", "MEAN_MOTION": 1.00266249, "ECCENTRICITY": 0.0002421, "INCLINATION": 0.0562, "RA_OF_ASC_NODE": 289.1308, "ARG_OF_PERICENTER": 76.1319, "MEAN_ANOMALY": 107.6918, "EPHEMERIS_TYPE": 0, "CLASSIFICATION_TYPE": "U", "NORAD_CAT_ID": 54048, "ELEMENT_SET_NO": 999, "REV_AT_EPOCH": 1162, "BSTAR": 0, "MEAN_MOTION_DOT": 1.07e-06, "MEAN_MOTION_DDOT": 0}, "tle": {"line1": "1 54048U 22134A   25358.01989183  .00000107  00000+0  00000+0 0  9991", "line2": "2 54048   0.0562 289.1308 0002421  76.1319 107.6918  1.00266249 11625"}}, "geometry": {"type": "Point", "coordinates": [-80.54628638556633, -0.028681745618481025]}}, {"type": "Feature", "properties": {"norad_id": 54225, "name": "EUTELSAT HOTBIRD 13G", "group": "eutelsat", "lat": 0.007764656326216668, "lon": -80.49422949872857, "alt_km": 35788.65591458148, "timestamp": "2025-12-24T11:32:59.675671+00:00", "meta": {"OBJECT_NAME": "EUTELSAT HOTBIRD 13G", "OBJECT_ID": "2022-146A", "EPOCH": "2025-12-24T00:28:38.654112", "MEAN_MOTION": 1.00268836, "ECCENTRICITY": 0.0001713, "INCLINATION": 0.0535, "RA_OF_ASC_NODE": 227.8066, "ARG_OF_PERICENTER": 307.349, "MEAN_ANOMALY": 297.8001, "EPHEMERIS_TYPE": 0, "CLASSIFICATION_TYPE": "U", "NORAD_CAT_ID": 54225, "ELEMENT_SET_NO": 999, "REV_AT_EPOCH": 571, "BSTAR": 0, "MEAN_MOTION_DOT": 1.08e-06, "MEAN_MOTION_DDOT": 0}, "tle": {"line1": "1 54225U 22146A   25358.01989183  .00000108  00000+0  00000+0 0  9992", "line2": "2 54225   0.0535 227.8066 0001713 307.3490 297.8001  1.00268836  5716"}}, "geometry": {"type": "Point", "coordinates": [-80.49422949872857, 0.007764656326216668]}}, {"type": "Feature", "properties": {"norad_id": 54259, "name": "EUTELSAT 10B", "group": "eutelsat", "lat": -0.021026702627021884, "lon": -83.47864345239107, "alt_km": 35790.19152033863, "timestamp": "2025-12-24T11:32:59.675683+00:00", "meta": {"OBJECT_NAME": "EUTELSAT 10B", "OBJECT_ID": "2022-157A", "EPOCH": "2025-12-24T00:28:38.654112", "MEAN_MOTION": 1.00265671, "ECCENTRICITY": 7.06e-05, "INCLINATION": 0.058, "RA_OF_ASC_NODE": 95.805, "ARG_OF_PERICENTER": 36.3332, "MEAN_ANOMALY": 337.8525, "EPHEMERIS_TYPE": 0, "CLASSIFICATION_TYPE": "U", "NORAD_CAT_ID": 54259, "ELEMENT_SET_NO": 999, "REV_AT_EPOCH": 1127, "BSTAR": 0, "MEAN_MOTION_DOT": 8.9e-07, "MEAN_MOTION_DDOT": 0}, "tle": {"line1": "1 54259U 22157A   25358.01989183  .00000089  00000+0  00000+0 0  9999", "line2": "2 54259   0.0580  95.8050 0000706  36.3332 337.8525  1.00265671 11272"}}, "geometry": {"type": "Point", "coordinates": [-83.47864345239107, -0.021026702627021884]}}, {"type": "Feature", "properties": {"norad_id": 59346, "name": "EUTELSAT 36D", "group": "eutelsat", "lat": -0.039051314032807205, "lon": -57.63108194000013, "alt_km": 35785.020104299576, "timestamp": "2025-12-24T11:32:59.675695+00:00", "meta": {"OBJECT_NAME": "EUTELSAT 36D", "OBJECT_ID": "2024-059A", "EPOCH": "2025-12-23T23:34:29.430912", "MEAN_MOTION": 1.00272896, "ECCENTRICITY": 3.5e-05, "INCLINATION": 0.0182, "RA_OF_ASC_NODE": 36.5461, "ARG_OF_PERICENTER": 327.7923, "MEAN_ANOMALY": 117.9204, "EPHEMERIS_TYPE": 0, "CLASSIFICATION_TYPE": "U", "NORAD_CAT_ID": 59346, "ELEMENT_SET_NO": 999, "REV_AT_EPOCH": 639, "BSTAR": 0, "MEAN_MOTION_DOT": 1.77e-06, "MEAN_MOTION_DDOT": 0}, "tle": {"line1": "1 59346U 24059A   25357.98228508  .00000177  00000+0  00000+0 0  9994", "line2": "2 59346   0.0182  36.5461 0000350 327.7923 117.9204  1.00272896  6393"}}, "geometry": {"type": "Point", "coordinates": [-57.63108194000013, -0.039051314032807205]}}]}